NORAD_CAT_ID,OBJECT_NAME,OBJECT_TYPE,EPOCH,MEAN_MOTION,ECCENTRICITY,INCLINATION,RA_OF_ASC_NODE,ARG_OF_PERICENTER,MEAN_ANOMALY,BSTAR,MEAN_MOTION_DOT,MEAN_MOTION_DDOT,TLE_LINE0,TLE_LINE1,TLE_LINE2,SEMIMAJOR_AXIS,PERIOD,APOGEE,PERIGEE,DECAYED
51853.0,STARLINK-3539,PAYLOAD,2023-10-04 13:27:57,15.10485929,0.0001636,53.2181,41.4972,71.4728,288.6443,0.00033058,5.216e-05,0.0,0 STARLINK-3539,1 51853U 22022B   23277.56107855  .00005216  00000-0  33058-3 0  9994,2 51853  53.2181  41.4972 0001636  71.4728 288.6443 15.10485929 89035,6912.854,95.334,535.85,533.588,0.0
51853.0,STARLINK-3539,PAYLOAD,2023-10-04 15:03:13,15.10490275,0.0001473,53.219,41.1943,96.0857,264.0304,0.00033098,5.224e-05,0.0,0 STARLINK-3539,1 51853U 22022B   23277.62724230  .00005224  00000-0  33098-3 0  9996,2 51853  53.2190  41.1943 0001473  96.0857 264.0304 15.10490275 89040,6912.841,95.333,535.724,533.687,0.0
51853.0,STARLINK-3539,PAYLOAD,2023-10-05 08:31:20,15.10480463,0.0001561,53.2185,37.9208,96.5802,263.5369,0.00010445,1.447e-05,0.0,0 STARLINK-3539,1 51853U 22022B   23278.35509561  .00001447  00000-0  10445-3 0  9999,2 51853  53.2185  37.9208 0001561  96.5802 263.5369 15.10480463 89159,6912.871,95.334,535.815,533.657,0.0
51853.0,STARLINK-3539,PAYLOAD,2023-10-05 13:17:11,15.10480492,0.0001498,53.2184,37.0279,100.5355,259.5806,0.00010231,1.411e-05,0.0,0 STARLINK-3539,1 51853U 22022B   23278.55360073  .00001411  00000-0  10231-3 0  9998,2 51853  53.2184  37.0279 0001498 100.5355 259.5806 15.10480492 89181,6912.871,95.334,535.771,533.7,0.0
51853.0,STARLINK-3539,PAYLOAD,2023-10-05 14:52:27,15.10483997,0.0001395,53.2185,36.7309,87.0953,273.0199,0.0001259,1.804e-05,0.0,0 STARLINK-3539,1 51853U 22022B   23278.61976673  .00001804  00000-0  12590-3 0  9990,2 51853  53.2185  36.7309 0001395  87.0953 273.0199 15.10483997 89191,6912.86,95.334,535.689,533.761,0.0
51853.0,STARLINK-3539,PAYLOAD,2023-10-06 06:45:17,15.10470625,0.0001345,53.2172,33.7552,88.044,272.0706,-2.0328e-05,-6.31e-06,0.0,0 STARLINK-3539,1 51853U 22022B   23279.28145542 -.00000631  00000-0 -20328-4 0  9995,2 51853  53.2172  33.7552 0001345  88.0440 272.0706 15.10470625 89299,6912.901,95.335,535.695,533.836,0.0
51853.0,STARLINK-3539,PAYLOAD,2023-10-06 14:41:42,15.10478117,0.0001458,53.2184,32.2654,67.161,292.9537,0.00010054,1.382e-05,0.0,0 STARLINK-3539,1 51853U 22022B   23279.61229511  .00001382  00000-0  10054-3 0  9997,2 51853  53.2184  32.2654 0001458  67.1610 292.9537 15.10478117 89344,6912.878,95.334,535.751,533.735,0.0
51853.0,STARLINK-3539,PAYLOAD,2023-10-07 14:30:55,15.10492685,0.0001284,53.2172,27.8003,85.5895,274.5244,0.00044439,7.116e-05,0.0,0 STARLINK-3539,1 51853U 22022B   23280.60481360  .00007116  00000-0  44439-3 0  9995,2 51853  53.2172  27.8003 0001284  85.5895 274.5244 15.10492685 89498,6912.833,95.333,535.586,533.811,0.0
51853.0,STARLINK-3539,PAYLOAD,2023-10-07 16:06:12,15.10491311,0.0001344,53.2162,27.5035,84.6816,275.433,0.00040509,6.46e-05,0.0,0 STARLINK-3539,1 51853U 22022B   23280.67098330  .00006460  00000-0  40509-3 0  9998,2 51853  53.2162  27.5035 0001344  84.6816 275.4330 15.10491311 89502,6912.838,95.333,535.632,533.774,0.0
51853.0,STARLINK-3539,PAYLOAD,2023-10-08 00:02:38,15.10475529,0.0001806,53.2175,26.0127,84.176,275.9439,6.2682e-05,7.51e-06,0.0,0 STARLINK-3539,1 51853U 22022B   23281.00182953  .00000751  00000-0  62682-4 0  9995,2 51853  53.2175  26.0127 0001806  84.1760 275.9439 15.10475529 89551,6912.886,95.334,535.999,533.502,0.0
51853.0,STARLINK-3539,PAYLOAD,2023-10-08 12:44:53,15.10477719,0.0002019,53.2175,23.6313,81.1266,278.9955,9.5759e-05,1.302e-05,0.0,0 STARLINK-3539,1 51853U 22022B   23281.53117643  .00001302  00000-0  95759-4 0  9991,2 51853  53.2175  23.6313 0002019  81.1266 278.9955 15.10477719 89634,6912.879,95.334,536.14,533.348,0.0
51853.0,STARLINK-3539,PAYLOAD,2023-10-08 14:20:10,15.10477981,0.0002003,53.2176,23.3343,85.2012,274.9209,7.6623e-05,9.83e-06,0.0,0 STARLINK-3539,1 51853U 22022B   23281.59734380  .00000983  00000-0  76623-4 0  9993,2 51853  53.2176  23.3343 0002003  85.2012 274.9209 15.10477981 89642,6912.878,95.334,536.128,533.359,0.0
51853.0,STARLINK-3539,PAYLOAD,2023-10-09 06:12:59,15.10480117,0.0002073,53.2168,20.3583,78.6725,281.4501,0.000148,2.172e-05,0.0,0 STARLINK-3539,1 51853U 22022B   23282.25902468  .00002172  00000-0  14800-3 0  9991,2 51853  53.2168  20.3583 0002073  78.6725 281.4501 15.10480117 89744,6912.872,95.334,536.17,533.304,0.0
51853.0,STARLINK-3539,PAYLOAD,2023-10-09 12:34:07,15.104769,0.0001897,53.2166,19.1651,78.2022,281.9184,-1.2022e-07,-2.95e-06,0.0,0 STARLINK-3539,1 51853U 22022B   23282.52369847 -.00000295  00000-0 -12022-6 0  9992,2 51853  53.2166  19.1651 0001897  78.2022 281.9184 15.10476900 89784,6912.882,95.334,536.058,533.435,0.0
51853.0,STARLINK-3539,PAYLOAD,2023-10-09 14:09:24,15.10485261,0.0001702,53.2169,18.8657,77.0757,283.0426,0.00015192,2.238e-05,0.0,0 STARLINK-3539,1 51853U 22022B   23282.58986274  .00002238  00000-0  15192-3 0  9992,2 51853  53.2169  18.8657 0001702  77.0757 283.0426 15.10485261 89799,6912.856,95.334,535.898,533.544,0.0
51853.0,STARLINK-3539,PAYLOAD,2023-10-10 10:48:04,15.10486001,0.0002206,53.217,14.9962,66.1652,293.9572,0.00030012,4.708e-05,0.0,0 STARLINK-3539,1 51853U 22022B   23283.45005089  .00004708  00000-0  30012-3 0  9997,2 51853  53.2170  14.9962 0002206  66.1652 293.9572 15.10486001 89920,6912.854,95.334,536.244,533.194,0.0
51853.0,STARLINK-3539,PAYLOAD,2023-10-10 13:58:37,15.10499095,0.0001743,53.2172,14.399,85.4845,274.6347,0.00052652,8.489e-05,0.0,0 STARLINK-3539,1 51853U 22022B   23283.58238036  .00008489  00000-0  52652-3 0  9995,2 51853  53.2172  14.3990 0001743  85.4845 274.6347 15.10499095 89945,6912.814,95.333,535.884,533.474,0.0
51853.0,STARLINK-3539,PAYLOAD,2023-10-11 10:37:18,15.10475831,0.0001459,53.2184,10.5306,103.2854,256.8301,1.7386e-05,-3e-08,0.0,0 STARLINK-3539,1 51853U 22022B   23284.44257382 -.00000003  00000-0  17386-4 0  9997,2 51853  53.2184  10.5306 0001459 103.2854 256.8301 15.10475831 90070,6912.885,95.334,535.758,533.741,0.0
51853.0,STARLINK-3539,PAYLOAD,2023-10-11 12:12:35,15.10474616,0.0001664,53.218,10.2306,90.5429,269.5755,4.2492e-05,4.15e-06,0.0,0 STARLINK-3539,1 51853U 22022B   23284.50874272  .00000415  00000-0  42492-4 0  9999,2 51853  53.2180  10.2306 0001664  90.5429 269.5755 15.10474616 90082,6912.889,95.334,535.904,533.603,0.0
51853.0,STARLINK-3539,PAYLOAD,2023-10-12 12:01:49,15.10485936,0.0001622,53.2187,5.7641,99.318,260.7996,0.00039903,6.358e-05,0.0,0 STARLINK-3539,1 51853U 22022B   23285.50126434  .00006358  00000-0  39903-3 0  9994,2 51853  53.2187   5.7641 0001622  99.3180 260.7996 15.10485936 90239,6912.854,95.334,535.84,533.598,0.0
51853.0,STARLINK-3539,PAYLOAD,2023-10-13 11:51:03,15.10488074,0.0001393,53.2175,1.2964,82.8868,277.2283,0.00039881,6.355e-05,0.0,0 STARLINK-3539,1 51853U 22022B   23286.49378917  .00006355  00000-0  39881-3 0  9990,2 51853  53.2175   1.2964 0001393  82.8868 277.2283 15.10488074 90384,6912.847,95.333,535.675,533.75,0.0
51853.0,STARLINK-3539,PAYLOAD,2023-10-14 11:40:16,15.1050333,0.0001413,53.2179,356.8304,80.8569,279.2584,0.00059369,9.612e-05,0.0,0 STARLINK-3539,1 51853U 22022B   23287.48630346  .00009612  00000-0  59369-3 0  9999,2 51853  53.2179 356.8304 0001413  80.8569 279.2584 15.10503330 90530,6912.801,95.332,535.643,533.689,0.0
51853.0,STARLINK-3539,PAYLOAD,2023-10-14 21:11:58,15.1047978,0.0001517,53.2182,355.0423,79.4914,280.625,4.8087e-05,5.08e-06,0.0,0 STARLINK-3539,1 51853U 22022B   23287.88331758  .00000508  00000-0  48087-4 0  9999,2 51853  53.2182 355.0423 0001517  79.4914 280.6250 15.10479780 90593,6912.873,95.334,535.786,533.689,0.0
51853.0,STARLINK-3539,PAYLOAD,2023-10-15 11:29:31,15.10463287,0.0001397,53.2165,352.3652,94.0393,266.076,-0.00023415,-4.187e-05,0.0,0 STARLINK-3539,1 51853U 22022B   23288.47883971 -.00004187  00000-0 -23415-3 0  9990,2 51853  53.2165 352.3652 0001397  94.0393 266.0760 15.10463287 90687,6912.923,95.335,535.754,533.822,0.0
51853.0,STARLINK-3539,PAYLOAD,2023-10-15 21:01:13,15.10460591,0.0001426,53.2164,350.5784,95.4941,264.6215,-0.00015706,-2.905e-05,0.0,0 STARLINK-3539,1 51853U 22022B   23288.87585425 -.00002905  00000-0 -15706-3 0  9997,2 51853  53.2164 350.5784 0001426  95.4941 264.6215 15.10460591 90740,6912.931,95.335,535.782,533.811,0.0
51853.0,STARLINK-3539,PAYLOAD,2023-10-16 08:08:13,15.10449227,0.0001418,53.2165,348.4932,101.8887,258.2265,-0.00030851,-5.421e-05,0.0,0 STARLINK-3539,1 51853U 22022B   23289.33904315 -.00005421  00000-0 -30851-3 0  9996,2 51853  53.2165 348.4932 0001418 101.8887 258.2265 15.10449227 90819,6912.966,95.336,535.811,533.851,0.0
51853.0,STARLINK-3539,PAYLOAD,2023-10-16 11:18:47,15.10457088,0.0001537,53.2171,347.8986,102.1633,257.9532,-0.00023897,-4.267e-05,0.0,0 STARLINK-3539,1 51853U 22022B   23289.47138094 -.00004267  00000-0 -23897-3 0  9993,2 51853  53.2171 347.8986 0001537 102.1633 257.9532 15.10457088 90832,6912.942,95.335,535.87,533.744,0.0
51853.0,STARLINK-3539,PAYLOAD,2023-10-17 11:08:00,15.10479486,0.0001725,53.2173,343.4289,103.0933,257.0252,0.00041874,6.686e-05,0.0,0 STARLINK-3539,1 51853U 22022B   23290.46389976  .00006686  00000-0  41874-3 0  9991,2 51853  53.2173 343.4289 0001725 103.0933 257.0252 15.10479486 90986,6912.874,95.334,535.931,533.546,0.0
51853.0,STARLINK-3539,PAYLOAD,2023-10-17 20:39:41,15.10495537,0.0001478,53.2175,341.6421,82.5869,277.5291,0.00049061,7.888e-05,0.0,0 STARLINK-3539,1 51853U 22022B   23290.86090075  .00007888  00000-0  49061-3 0  9995,2 51853  53.2175 341.6421 0001478  82.5869 277.5291 15.10495537 91043,6912.825,95.333,535.711,533.668,0.0
51853.0,STARLINK-3539,PAYLOAD,2023-10-18 10:57:14,15.10490451,0.0001555,53.217,338.9636,80.4037,279.7131,0.00019113,2.892e-05,0.0,0 STARLINK-3539,1 51853U 22022B   23291.45641401  .00002892  00000-0  19113-3 0  9991,2 51853  53.2170 338.9636 0001555  80.4037 279.7131 15.10490451 91132,6912.84,95.333,535.78,533.63,0.0
